0 COSMOS 1771
1 16917U 86062A   13281.87282936 -.00000054  00000-0  31608-4 0  5310
2 16917 064.9832 091.0815 0050574 354.1889 108.7622 13.82445860371335
0 COSMOS 1771
1 16917U 86062A   13283.03671800 -.00000049  00000-0  35743-4 0  5321
2 16917 064.9833 088.0734 0050687 353.8054 141.2112 13.82446135371496
0 COSMOS 1771
1 16917U 86062A   13283.51598726  .00000005  00000-0  48348-5 0  5348
2 16917 064.9823 086.8389 0050201 353.6119 006.4759 13.82446039371569
0 COSMOS 1771
1 16917U 86062A   13285.86357260 -.00000089  00000-0 -14635-6 0  5341
2 16917 064.9839 080.7671 0050976 352.9672 169.8292 13.82446545371881
0 COSMOS 1771
1 16917U 86062A   13286.94508638 -.00000100  00000-0 -10452-4 0  5354
2 16917 064.9842 077.9718 0051071 352.6394 152.2874 13.82446562372039
0 COSMOS 1771
1 16917U 86062A   13287.95603751 -.00000109  00000-0 -19192-4 0  5368
2 16917 064.9845 075.3591 0051159 352.3207 143.5830 13.82446571372170
0 COSMOS 1771
1 16917U 86062A   13289.53429014 -.00000090  00000-0 -15655-5 0  5373
2 16917 064.9848 071.2801 0051303 351.8062 078.2402 13.82446462372398
0 COSMOS 1771
1 16917U 86062A   13290.75001297  .00000014  00000-0  12697-4 0  5396
2 16917 064.9833 068.1429 0050875 351.3165 008.7464 13.82446390372560
0 COSMOS 1771
1 16917U 86062A   13290.76983396 -.00000071  00000-0  15615-4 0  5382
2 16917 064.9850 068.0871 0051421 351.3992 107.3058 13.82446313372565
0 COSMOS 1771
1 16917U 86062A   13291.93504648 -.00000052  00000-0  33155-4 0  5390
2 16917 064.9851 065.0757 0051516 351.0526 146.3090 13.82446404372729
0 COSMOS 1771
1 16917U 86062A   13292.94794148 -.00000040  00000-0  44299-4 0  5408
2 16917 064.9852 062.4580 0051611 350.7505 147.2620 13.82446396372868
0 COSMOS 1771
1 16917U 86062A   13294.52626266 -.00000051  00000-0  33948-4 0  5411
2 16917 064.9853 058.3791 0051752 350.2508 082.2434 13.82446692373086
0 COSMOS 1771
1 16917U 86062A   13295.53937668 -.00000062  00000-0  24341-4 0  5424
2 16917 064.9854 055.7609 0051845 349.9395 084.2958 13.82446717373225
